start=new Date('2021-08-24T00:00:00.000Z').valueOf();
sats=[{"REV_AT_EPOCH":"1501","ECCENTRICITY":"0.00014990","TLE_LINE2":"2 48583  53.0578  29.1423 0001499 126.8120 233.3007 15.06391138 15014","REF_FRAME":"TEME","NORAD_CAT_ID":"48583","APOAPSIS":"548.279","BSTAR":"-0.00003957500000","EPHEMERIS_TYPE":"0","ARG_OF_PERICENTER":"126.8120","MEAN_ELEMENT_THEORY":"SGP4","TIME_SYSTEM":"UTC","DECAY_DATE":null,"MEAN_MOTION":"15.06391138","ELEMENT_SET_NO":"999","SEMIMAJOR_AXIS":"6925.376","EPOCH":"2021-08-23T16:36:10.229184","INCLINATION":"53.0578","SITE":"AFETR","PERIAPSIS":"546.203","PERIOD":"95.593","RCS_SIZE":"LARGE","MEAN_ANOMALY":"233.3007","TLE_LINE1":"1 48583U 21041AG  21235.69178506 -.00000871  00000-0 -39575-4 0  9992","LAUNCH_DATE":"2021-05-15","OBJECT_TYPE":"PAYLOAD","COUNTRY_CODE":"US","MEAN_MOTION_DDOT":"0.0000000000000","FILE":"3102124","CENTER_NAME":"EARTH","CLASSIFICATION_TYPE":"U","OBJECT_ID":"2021-041AG","MEAN_MOTION_DOT":"-0.00000871","GP_ID":"183332143","RA_OF_ASC_NODE":"29.1423","OBJECT_NAME":"STARLINK-2237"},{"NORAD_CAT_ID":"48584","EPHEMERIS_TYPE":"0","MEAN_ELEMENT_THEORY":"SGP4","ARG_OF_PERICENTER":"115.8061","APOAPSIS":"548.283","BSTAR":"0.00188020000000","ECCENTRICITY":"0.00014760","REV_AT_EPOCH":"357","REF_FRAME":"TEME","TLE_LINE2":"2 48584  53.0537  28.1278 0001476 115.8061 164.6359 15.06384514  3578","PERIAPSIS":"546.239","SITE":"AFETR","PERIOD":"95.593","RCS_SIZE":"LARGE","MEAN_MOTION":"15.06384514","DECAY_DATE":null,"ELEMENT_SET_NO":"999","TIME_SYSTEM":"UTC","INCLINATION":"53.0537","SEMIMAJOR_AXIS":"6925.396","EPOCH":"2021-08-23T22:00:00.999936","MEAN_MOTION_DDOT":"0.0000000000000","FILE":"3102124","COUNTRY_CODE":"US","CENTER_NAME":"EARTH","MEAN_ANOMALY":"164.6359","LAUNCH_DATE":"2021-05-15","OBJECT_TYPE":"PAYLOAD","TLE_LINE1":"1 48584U 21041AH  21235.91667824  .00027823  00000-0  18802-2 0  9996","GP_ID":"183331622","MEAN_MOTION_DOT":"0.00027823","OBJECT_NAME":"STARLINK-2238","RA_OF_ASC_NODE":"28.1278","CLASSIFICATION_TYPE":"U","OBJECT_ID":"2021-041AH"},{"OBJECT_NAME":"STARLINK-2240","RA_OF_ASC_NODE":"28.1335","GP_ID":"183331712","MEAN_MOTION_DOT":"0.00030929","OBJECT_ID":"2021-041AJ","CLASSIFICATION_TYPE":"U","CENTER_NAME":"EARTH","FILE":"3102124","MEAN_MOTION_DDOT":"0.0000000000000","COUNTRY_CODE":"US","OBJECT_TYPE":"PAYLOAD","LAUNCH_DATE":"2021-05-15","TLE_LINE1":"1 48585U 21041AJ  21235.91667824  .00030929  00000-0  20869-2 0  9994","MEAN_ANOMALY":"114.6466","RCS_SIZE":"LARGE","PERIOD":"95.593","PERIAPSIS":"546.310","SITE":"AFETR","INCLINATION":"53.0549","EPOCH":"2021-08-23T22:00:00.999936","SEMIMAJOR_AXIS":"6925.389","ELEMENT_SET_NO":"999","MEAN_MOTION":"15.06386676","DECAY_DATE":null,"TIME_SYSTEM":"UTC","MEAN_ELEMENT_THEORY":"SGP4","ARG_OF_PERICENTER":"105.8005","EPHEMERIS_TYPE":"0","BSTAR":"0.00208690000000","APOAPSIS":"548.199","NORAD_CAT_ID":"48585","REF_FRAME":"TEME","TLE_LINE2":"2 48585  53.0549  28.1335 0001364 105.8005 114.6466 15.06386676  3574","ECCENTRICITY":"0.00013640","REV_AT_EPOCH":"357"},{"INCLINATION":"53.0547","SEMIMAJOR_AXIS":"6925.347","EPOCH":"2021-08-23T22:00:00.999936","MEAN_MOTION":"15.06400564","DECAY_DATE":null,"ELEMENT_SET_NO":"999","TIME_SYSTEM":"UTC","PERIOD":"95.592","RCS_SIZE":"LARGE","PERIAPSIS":"546.124","SITE":"AFETR","REF_FRAME":"TEME","TLE_LINE2":"2 48586  53.0547  28.1346 0001571 110.4067 150.0624 15.06400564  3578","ECCENTRICITY":"0.00015710","REV_AT_EPOCH":"357","EPHEMERIS_TYPE":"0","MEAN_ELEMENT_THEORY":"SGP4","ARG_OF_PERICENTER":"110.4067","APOAPSIS":"548.300","BSTAR":"-0.00013042000000","NORAD_CAT_ID":"48586","OBJECT_ID":"2021-041AK","CLASSIFICATION_TYPE":"U","OBJECT_NAME":"STARLINK-2241","RA_OF_ASC_NODE":"28.1346","GP_ID":"183331874","MEAN_MOTION_DOT":"-0.00002224","LAUNCH_DATE":"2021-05-15","OBJECT_TYPE":"PAYLOAD","TLE_LINE1":"1 48586U 21041AK  21235.91667824 -.00002224  00000-0 -13042-3 0  9990","MEAN_ANOMALY":"150.0624","CENTER_NAME":"EARTH","MEAN_MOTION_DDOT":"0.0000000000000","FILE":"3102124","COUNTRY_CODE":"US"},{"OBJECT_TYPE":"PAYLOAD","LAUNCH_DATE":"2021-05-15","TLE_LINE1":"1 48587U 21041AL  21235.91667824  .00030538  00000-0  20611-2 0  9997","MEAN_ANOMALY":"122.0665","CENTER_NAME":"EARTH","FILE":"3102124","MEAN_MOTION_DDOT":"0.0000000000000","COUNTRY_CODE":"US","OBJECT_ID":"2021-041AL","CLASSIFICATION_TYPE":"U","OBJECT_NAME":"STARLINK-2242","RA_OF_ASC_NODE":"28.1297","GP_ID":"183331802","MEAN_MOTION_DOT":"0.00030538","REF_FRAME":"TEME","TLE_LINE2":"2 48587  53.0537  28.1297 0001333 103.5022 122.0665 15.06383560  3573","ECCENTRICITY":"0.00013330","REV_AT_EPOCH":"357","MEAN_ELEMENT_THEORY":"SGP4","ARG_OF_PERICENTER":"103.5022","EPHEMERIS_TYPE":"0","BSTAR":"0.00206110000000","APOAPSIS":"548.187","NORAD_CAT_ID":"48587","INCLINATION":"53.0537","EPOCH":"2021-08-23T22:00:00.999936","SEMIMAJOR_AXIS":"6925.399","ELEMENT_SET_NO":"999","MEAN_MOTION":"15.06383560","DECAY_DATE":null,"TIME_SYSTEM":"UTC","RCS_SIZE":"LARGE","PERIOD":"95.593","PERIAPSIS":"546.341","SITE":"AFETR"},{"LAUNCH_DATE":"2021-05-15","OBJECT_TYPE":"PAYLOAD","TLE_LINE1":"1 48588U 21041AM  21235.71849783  .00000981  00000-0  84763-4 0  9991","MEAN_ANOMALY":"236.5067","CENTER_NAME":"EARTH","MEAN_MOTION_DDOT":"0.0000000000000","FILE":"3102124","COUNTRY_CODE":"US","OBJECT_ID":"2021-041AM","CLASSIFICATION_TYPE":"U","OBJECT_NAME":"STARLINK-2244","RA_OF_ASC_NODE":"19.0339","GP_ID":"183331964","MEAN_MOTION_DOT":"0.00000981","REF_FRAME":"TEME","TLE_LINE2":"2 48588  53.0572  19.0339 0001732 123.6088 236.5067 15.06400533 15151","ECCENTRICITY":"0.00017320","REV_AT_EPOCH":"1515","EPHEMERIS_TYPE":"0","ARG_OF_PERICENTER":"123.6088","MEAN_ELEMENT_THEORY":"SGP4","APOAPSIS":"548.411","BSTAR":"0.00008476300000","NORAD_CAT_ID":"48588","INCLINATION":"53.0572","SEMIMAJOR_AXIS":"6925.347","EPOCH":"2021-08-23T17:14:38.212512","DECAY_DATE":null,"MEAN_MOTION":"15.06400533","ELEMENT_SET_NO":"999","TIME_SYSTEM":"UTC","PERIOD":"95.592","RCS_SIZE":"LARGE","PERIAPSIS":"546.012","SITE":"AFETR"},{"MEAN_ANOMALY":"215.9470","TLE_LINE1":"1 48589U 21041AN  21235.84751222 -.00000039  00000-0  16261-4 0  9999","OBJECT_TYPE":"PAYLOAD","LAUNCH_DATE":"2021-05-15","COUNTRY_CODE":"US","FILE":"3102124","MEAN_MOTION_DDOT":"0.0000000000000","CENTER_NAME":"EARTH","CLASSIFICATION_TYPE":"U","OBJECT_ID":"2021-041AN","MEAN_MOTION_DOT":"-0.00000039","GP_ID":"183332054","RA_OF_ASC_NODE":"18.4545","OBJECT_NAME":"STARLINK-2245","REV_AT_EPOCH":"1517","ECCENTRICITY":"0.00018370","TLE_LINE2":"2 48589  53.0579  18.4545 0001837 144.1643 215.9470 15.06398125 15176","REF_FRAME":"TEME","NORAD_CAT_ID":"48589","BSTAR":"0.00001626100000","APOAPSIS":"548.491","MEAN_ELEMENT_THEORY":"SGP4","ARG_OF_PERICENTER":"144.1643","EPHEMERIS_TYPE":"0","TIME_SYSTEM":"UTC","ELEMENT_SET_NO":"999","DECAY_DATE":null,"MEAN_MOTION":"15.06398125","EPOCH":"2021-08-23T20:20:25.055808","SEMIMAJOR_AXIS":"6925.354","INCLINATION":"53.0579","SITE":"AFETR","PERIAPSIS":"545.947","RCS_SIZE":"LARGE","PERIOD":"95.592"},{"TLE_LINE1":"1 48590U 21041AP  21235.91667824  .00029637  00000-0  20011-2 0  9993","LAUNCH_DATE":"2021-05-15","OBJECT_TYPE":"PAYLOAD","MEAN_ANOMALY":"124.4573","CENTER_NAME":"EARTH","COUNTRY_CODE":"US","MEAN_MOTION_DDOT":"0.0000000000000","FILE":"3102124","OBJECT_ID":"2021-041AP","CLASSIFICATION_TYPE":"U","RA_OF_ASC_NODE":"28.1316","OBJECT_NAME":"STARLINK-2246","MEAN_MOTION_DOT":"0.00029637","GP_ID":"183331533","TLE_LINE2":"2 48590  53.0548  28.1316 0001440 115.9838 124.4573 15.06383370  3575","REF_FRAME":"TEME","REV_AT_EPOCH":"357","ECCENTRICITY":"0.00014400","APOAPSIS":"548.262","BSTAR":"0.00200110000000","EPHEMERIS_TYPE":"0","MEAN_ELEMENT_THEORY":"SGP4","ARG_OF_PERICENTER":"115.9838","NORAD_CAT_ID":"48590","SEMIMAJOR_AXIS":"6925.400","EPOCH":"2021-08-23T22:00:00.999936","INCLINATION":"53.0548","TIME_SYSTEM":"UTC","MEAN_MOTION":"15.06383370","DECAY_DATE":null,"ELEMENT_SET_NO":"999","PERIOD":"95.593","RCS_SIZE":"LARGE","SITE":"AFETR","PERIAPSIS":"546.267"},{"TLE_LINE1":"1 48591U 21041AQ  21235.84013353 -.00001357  00000-0 -72242-4 0  9994","LAUNCH_DATE":"2021-05-15","OBJECT_TYPE":"PAYLOAD","MEAN_ANOMALY":"214.1414","CENTER_NAME":"EARTH","COUNTRY_CODE":"US","MEAN_MOTION_DDOT":"0.0000000000000","FILE":"3102124","OBJECT_ID":"2021-041AQ","CLASSIFICATION_TYPE":"U","RA_OF_ASC_NODE":"18.4830","OBJECT_NAME":"STARLINK-2248","MEAN_MOTION_DOT":"-0.00001357","GP_ID":"183332144","TLE_LINE2":"2 48591  53.0587  18.4830 0001218 145.9653 214.1414 15.06400934 16079","REF_FRAME":"TEME","REV_AT_EPOCH":"1607","ECCENTRICITY":"0.00012180","APOAPSIS":"548.054","BSTAR":"-0.00007224200000","EPHEMERIS_TYPE":"0","MEAN_ELEMENT_THEORY":"SGP4","ARG_OF_PERICENTER":"145.9653","NORAD_CAT_ID":"48591","SEMIMAJOR_AXIS":"6925.346","EPOCH":"2021-08-23T20:09:47.536992","INCLINATION":"53.0587","TIME_SYSTEM":"UTC","MEAN_MOTION":"15.06400934","DECAY_DATE":null,"ELEMENT_SET_NO":"999","PERIOD":"95.592","RCS_SIZE":"LARGE","SITE":"AFETR","PERIAPSIS":"546.367"},{"MEAN_MOTION_DOT":"0.00000846","GP_ID":"183331623","RA_OF_ASC_NODE":"29.0765","OBJECT_NAME":"STARLINK-2249","CLASSIFICATION_TYPE":"U","OBJECT_ID":"2021-041AR","COUNTRY_CODE":"US","FILE":"3102124","MEAN_MOTION_DDOT":"0.0000000000000","CENTER_NAME":"EARTH","MEAN_ANOMALY":"236.0638","TLE_LINE1":"1 48592U 21041AR  21235.70652958  .00000846  00000-0  75709-4 0  9991","OBJECT_TYPE":"PAYLOAD","LAUNCH_DATE":"2021-05-15","SITE":"AFETR","PERIAPSIS":"546.075","RCS_SIZE":"MEDIUM","PERIOD":"95.593","TIME_SYSTEM":"UTC","ELEMENT_SET_NO":"999","MEAN_MOTION":"15.06389599","DECAY_DATE":null,"EPOCH":"2021-08-23T16:57:24.155712","SEMIMAJOR_AXIS":"6925.380","INCLINATION":"53.0570","NORAD_CAT_ID":"48592","BSTAR":"0.00007570900000","APOAPSIS":"548.416","ARG_OF_PERICENTER":"124.0512","MEAN_ELEMENT_THEORY":"SGP4","EPHEMERIS_TYPE":"0","REV_AT_EPOCH":"1501","ECCENTRICITY":"0.00016900","TLE_LINE2":"2 48592  53.0570  29.0765 0001690 124.0512 236.0638 15.06389599 15010","REF_FRAME":"TEME"}];
